H1 CPF  1  DLR 2022 08 27 10  7392 technosat            
H2  1704205 6203    42829 2022 08 27 00 00 00 2022 09 03 00 00 00    60 1 1  0 0 0
H9
10 0 59824  64800.000000  0      -6401041.045      -2687938.072        661481.249
10 0 59824  64860.000000  0      -6381158.966      -2583226.072       1107465.845
10 0 59824  64920.000000  0      -6333402.949      -2467915.598       1548745.671
10 0 59824  64980.000000  0      -6257874.807      -2342732.499       1983443.754
10 0 59824  65040.000000  0      -6154801.309      -2208443.636       2409710.055
10 0 59824  65100.000000  0      -6024533.689      -2065852.530       2825729.522
10 0 59824  65160.000000  0      -5867546.568      -1915794.862       3229730.097
10 0 59824  65220.000000  0      -5684436.154      -1759133.804       3619990.591
10 0 59824  65280.000000  0      -5475917.775      -1596755.215       3994848.210
10 0 59824  65340.000000  0      -5242822.879      -1429562.770       4352705.731
10 0 59824  65400.000000  0      -4986095.534      -1258473.055       4692038.331
10 0 59824  65460.000000  0      -4706788.449      -1084410.686       5011400.125
10 0 59824  65520.000000  0      -4406058.499       -908303.425       5309430.351
10 0 59824  65580.000000  0      -4085161.778       -731077.321       5584859.242
10 0 59824  65640.000000  0      -3745448.095       -553651.865       5836513.468
10 0 59824  65700.000000  0      -3388355.082       -376935.249       6063321.082
10 0 59824  65760.000000  0      -3015401.876       -201819.735       6264316.053
10 0 59824  65820.000000  0      -2628182.419        -29177.192       6438642.261
10 0 59824  65880.000000  0      -2228358.478        140145.169       6585557.033
10 0 59824  65940.000000  0      -1817652.364        305328.904       6704434.231
10 0 59824  66000.000000  0      -1397839.393        465588.293       6794766.834
10 0 59824  66060.000000  0       -970740.131        620174.080       6856169.022
10 0 59824  66120.000000  0       -538212.423        768376.984       6888377.783
10 0 59824  66180.000000  0       -102143.241        909530.961       6891254.004
10 0 59824  66240.000000  0        335559.574       1043016.228       6864783.083
10 0 59824  66300.000000  0        772975.742       1168262.034       6809075.063
10 0 59824  66360.000000  0       1208181.048       1284749.171       6724364.204
10 0 59824  66420.000000  0       1639255.880       1392012.152       6611008.052
10 0 59824  66480.000000  0       2064293.770       1489641.105       6469486.012
10 0 59824  66540.000000  0       2481409.910       1577283.367       6300397.466
10 0 59824  66600.000000  0       2888749.677       1654644.784       6104459.416
10 0 59824  66660.000000  0       3284497.125       1721490.686       5882503.532
10 0 59824  66720.000000  0       3666883.234       1777646.522       5635472.680
10 0 59824  66780.000000  0       4034193.975       1822998.193       5364417.028
10 0 59824  66840.000000  0       4384778.189       1857492.096       5070489.731
10 0 59824  66900.000000  0       4717055.276       1881134.848       4754942.185
10 0 59824  66960.000000  0       5029522.695       1893992.704       4419118.815
10 0 59824  67020.000000  0       5320763.218       1896190.597       4064451.319
10 0 59824  67080.000000  0       5589451.667       1887910.838       3692452.292
10 0 59824  67140.000000  0       5834361.000       1869391.562       3304708.653
10 0 59824  67200.000000  0       6054368.211       1840924.861       2902874.926
10 0 59824  67260.000000  0       6248459.819       1802854.608       2488666.025
10 0 59824  67320.000000  0       6415736.808       1755574.021       2063849.714
10 0 59824  67380.000000  0       6555418.987       1699522.944       1630238.734
10 0 59824  67440.000000  0       6666848.667       1635184.864       1189682.763
10 0 59824  67500.000000  0       6749493.812       1563083.733        744060.294
10 0 59824  67560.000000  0       6802950.649       1483780.596        295270.341
10 0 59824  67620.000000  0       6826945.633       1397870.026       -154776.044
10 0 59824  67680.000000  0       6821336.635       1305976.362       -604164.263
10 0 59824  67740.000000  0       6786113.494       1208749.802      -1050984.566
10 0 59824  67800.000000  0       6721397.985       1106862.363      -1493340.348
10 0 59824  67860.000000  0       6627443.211       1001003.761      -1929356.403
10 0 59824  67920.000000  0       6504632.294        891877.245      -2357187.104
10 0 59824  67980.000000  0       6353476.392        780195.407      -2775024.334
10 0 59824  68040.000000  0       6174612.172        666676.007      -3181105.163
10 0 59824  68100.000000  0       5968798.718        552037.796      -3573719.323
10 0 59824  68160.000000  0       5736913.827        436996.373      -3951216.373
10 0 59824  68220.000000  0       5479949.766        322260.104      -4312012.507
10 0 59824  68280.000000  0       5199008.550        208526.143      -4654596.961
10 0 59824  68340.000000  0       4895296.800         96476.567      -4977538.027
10 0 59824  68400.000000  0       4570120.217        -13225.336      -5279488.715
10 0 59824  68460.000000  0       4224877.659       -119938.634      -5559192.017
10 0 59824  68520.000000  0       3861054.883       -223048.154      -5815485.778
10 0 59824  68580.000000  0       3480217.939       -321967.730      -6047307.189
10 0 59824  68640.000000  0       3084006.193       -416143.243      -6253696.777
10 0 59824  68700.000000  0       2674125.155       -505055.434      -6433801.886
10 0 59824  68760.000000  0       2252339.152       -588222.503      -6586879.741
10 0 59824  68820.000000  0       1820463.831       -665202.495      -6712300.129
10 0 59824  68880.000000  0       1380358.478       -735595.489      -6809547.700
10 0 59824  68940.000000  0        933918.125       -799045.511      -6878223.823
10 0 59824  69000.000000  0        483065.538       -855242.158      -6918047.929
10 0 59824  69060.000000  0         29743.200       -903922.003      -6928858.406
10 0 59824  69120.000000  0       -424094.729       -944869.759      -6910613.127
10 0 59824  69180.000000  0       -876490.546       -977919.193      -6863389.636
10 0 59824  69240.000000  0      -1325491.222      -1002953.772      -6787384.817
10 0 59824  69300.000000  0      -1769156.543      -1019907.021      -6682914.135
10 0 59824  69360.000000  0      -2205567.255      -1028762.654      -6550410.420
10 0 59824  69420.000000  0      -2632833.041      -1029554.427      -6390422.195
10 0 59824  69480.000000  0      -3049100.401      -1022365.739      -6203611.741
10 0 59824  69540.000000  0      -3452560.546      -1007328.992      -5990752.769
10 0 59824  69600.000000  0      -3841457.233       -984624.688      -5752727.607
10 0 59824  69660.000000  0      -4214094.395       -954480.241      -5490523.878
10 0 59824  69720.000000  0      -4568843.545       -917168.556      -5205230.784
10 0 59824  69780.000000  0      -4904150.954       -873006.358      -4898034.995
10 0 59824  69840.000000  0      -5218544.597       -822352.300      -4570216.118
10 0 59824  69900.000000  0      -5510640.828       -765604.835      -4223141.781
10 0 59824  69960.000000  0      -5779150.781       -703199.846      -3858262.276
10 0 59824  70020.000000  0      -6022886.384       -635608.036      -3477104.795
10 0 59824  70080.000000  0      -6240765.969       -563332.122      -3081267.283
10 0 59824  70140.000000  0      -6431819.420       -486903.833      -2672411.950
10 0 59824  70200.000000  0      -6595192.883       -406880.778      -2252258.458
10 0 59824  70260.000000  0      -6730153.035       -323843.124      -1822576.837
10 0 59824  70320.000000  0      -6836090.875       -238390.083      -1385180.042
10 0 59824  70380.000000  0      -6912524.860       -151136.283       -941916.171
10 0 59824  70440.000000  0      -6959103.355        -62708.040       -494660.503
10 0 59824  70500.000000  0      -6975606.469         26260.450        -45307.471
10 0 59824  70560.000000  0      -6961947.369        115130.968        404237.450
10 0 59824  70620.000000  0      -6918173.000        203265.175        852066.013
10 0 59824  70680.000000  0      -6844464.123        290028.510       1296275.552
10 0 59824  70740.000000  0      -6741134.690        374794.082       1734977.311
10 0 59824  70800.000000  0      -6608630.576        456946.517       2166304.752
10 0 59824  70860.000000  0      -6447527.650        535885.768       2588421.763
10 0 59824  70920.000000  0      -6258529.211        611030.833       2999530.735
10 0 59824  70980.000000  0      -6042462.772        681823.360       3397880.473
10 0 59824  71040.000000  0      -5800276.236        747731.119       3781773.816
10 0 59824  71100.000000  0      -5533033.569        808251.320       4149575.018
10 0 59824  71160.000000  0      -5241909.904        862913.761       4499716.860
10 0 59824  71220.000000  0      -4928186.105        911283.774       4830707.411
10 0 59824  71280.000000  0      -4593242.881        952964.965       5141136.389
10 0 59824  71340.000000  0      -4238554.511        987601.741       5429681.175
10 0 59824  71400.000000  0      -3865682.149       1014881.609       5695112.484
10 0 59824  71460.000000  0      -3476266.689       1034537.216       5936299.605
10 0 59824  71520.000000  0      -3072021.340       1046348.094       6152215.156
10 0 59824  71580.000000  0      -2654723.888       1050142.193       6341939.467
10 0 59824  71640.000000  0      -2226208.625       1045797.157       6504664.424
10 0 59824  71700.000000  0      -1788358.073       1033241.290       6639696.787
10 0 59824  71760.000000  0      -1343094.566       1012454.213       6746460.992
10 0 59824  71820.000000  0       -892371.744        983467.263       6824501.495
10 0 59824  71880.000000  0       -438165.907        946363.599       6873484.685
10 0 59824  71940.000000  0         17532.722        901277.996       6893200.243
99
